[{"OBJECT_NAME":"OBJECT B","OBJECT_ID":"2024-092B","EPOCH":"2026-03-09T22:35:16.756224","MEAN_MOTION":15.26654665,"ECCENTRICITY":0.00097063,"INCLINATION":97.6334,"RA_OF_ASC_NODE":195.5822,"ARG_OF_PERICENTER":166.5945,"MEAN_ANOMALY":193.5553,"EPHEMERIS_TYPE":0,"CLASSIFICATION_TYPE":"U","NORAD_CAT_ID":59774,"ELEMENT_SET_NO":999,"REV_AT_EPOCH":10038,"BSTAR":0.00052893964,"MEAN_MOTION_DOT":0.00013825,"MEAN_MOTION_DDOT":0},{"OBJECT_NAME":"STARLINK-31926","OBJECT_ID":"2024-098X","EPOCH":"2026-03-09T22:57:39.076128","MEAN_MOTION":15.27769593,"ECCENTRICITY":0.00012547,"INCLINATION":42.999,"RA_OF_ASC_NODE":265.9804,"ARG_OF_PERICENTER":279.3622,"MEAN_ANOMALY":80.7088,"EPHEMERIS_TYPE":0,"CLASSIFICATION_TYPE":"U","NORAD_CAT_ID":59879,"ELEMENT_SET_NO":999,"REV_AT_EPOCH":10200,"BSTAR":0.0003654505,"MEAN_MOTION_DOT":9.866e-5,"MEAN_MOTION_DDOT":0}]
